0 YAOGAN 5
1 33456U 08064A   13282.19445821  .00018409  00000-0  32886-3 0  3557
2 33456 097.2050 355.6615 0007721 145.7692 294.4859 15.50052603269306
0 YAOGAN 5
1 33456U 08064A   13282.46089454  .00018655  00000-0  33309-3 0  3568
2 33456 097.2052 355.9280 0007776 144.2782 341.7742 15.50063948269348
0 YAOGAN 5
1 33456U 08064A   13282.85003468  .00019412  00000-0  34627-3 0  3579
2 33456 097.2048 356.3170 0007880 143.8602 352.2843 15.50082900269403
0 YAOGAN 5
1 33456U 08064A   13282.97644969  .00030929  00000-0  54916-3 0  3589
2 33456 097.2047 356.4437 0007805 141.8412 339.3614 15.50124343269425
0 YAOGAN 5
1 33456U 08064A   13283.09170628  .00033790  00000-0  59932-3 0  3592
2 33456 097.2048 356.5583 0007891 142.1345 261.8370 15.50136335269447
0 YAOGAN 5
1 33456U 08064A   13283.44127315  .00033972  00000-0  60204-3 0  3604
2 33456 097.2050 356.9078 0007769 140.7528 052.7033 15.50160558269496
0 YAOGAN 5
1 33456U 08064A   13283.53572992  .00065627  00000-0  11653-2 0  3626
2 33456 097.2054 357.0024 0007983 143.1267 217.1055 15.50160851269518
0 YAOGAN 5
1 33456U 08064A   13283.66483343  .00065806  00000-0  11681-2 0  3643
2 33456 097.2052 357.1316 0008022 143.0548 217.1778 15.50169092269537
0 YAOGAN 5
1 33456U 08064A   13283.75680863  .00034072  00000-0  60335-3 0  3652
2 33456 097.2050 357.2234 0007773 139.5902 013.5884 15.50182189269540
0 YAOGAN 5
1 33456U 08064A   13284.12702044  .00030839  00000-0  54615-3 0  3662
2 33456 097.2041 357.5927 0007984 139.2364 278.5963 15.50196883269609
0 YAOGAN 5
1 33456U 08064A   13284.44933134  .00030192  00000-0  53443-3 0  3674
2 33456 097.2038 357.9150 0007967 138.3662 277.0119 15.50214749269653
0 YAOGAN 5
1 33456U 08064A   13285.43080777  .00028082  00000-0  49647-3 0  3700
2 33456 097.2040 358.8968 0007951 135.7618 353.4687 15.50263622269808
0 YAOGAN 5
1 33456U 08064A   13285.75805605  .00027824  00000-0  49166-3 0  3710
2 33456 097.2038 359.2237 0007822 134.5335 019.8543 15.50280699269851
0 YAOGAN 5
1 33456U 08064A   13286.06834292  .00027156  00000-0  47970-3 0  3729
2 33456 097.2037 359.5345 0007983 133.9154 311.0409 15.50294200269900
0 YAOGAN 5
1 33456U 08064A   13286.45040628  .00027034  00000-0  47721-3 0  3734
2 33456 097.2037 359.9165 0007991 132.3153 283.5642 15.50314125269962
0 YAOGAN 5
1 33456U 08064A   13286.78414916  .00027021  00000-0  47668-3 0  3742
2 33456 097.2036 000.2501 0007968 131.1169 346.2073 15.50332011270016
0 YAOGAN 5
1 33456U 08064A   13287.10089382  .00026792  00000-0  47241-3 0  3756
2 33456 097.2035 000.5668 0007973 129.9967 313.9773 15.50347506270067
0 YAOGAN 5
1 33456U 08064A   13287.43163485  .00026774  00000-0  47180-3 0  3762
2 33456 097.2035 000.8975 0007969 128.9404 359.7748 15.50365013270110
0 YAOGAN 5
1 33456U 08064A   13287.75872924  .00026322  00000-0  46364-3 0  3775
2 33456 097.2034 001.2250 0008013 128.0683 025.0636 15.50380288270166
0 YAOGAN 5
1 33456U 08064A   13288.06921376  .00026154  00000-0  46043-3 0  3784
2 33456 097.2033 001.5353 0008102 126.9847 317.9396 15.50395703270210
0 YAOGAN 5
1 33456U 08064A   13288.45117017  .00026383  00000-0  46409-3 0  3797
2 33456 097.2030 001.9168 0008013 125.7525 289.6506 15.50417356270279
0 YAOGAN 5
1 33456U 08064A   13288.78485331  .00027044  00000-0  47523-3 0  3805
2 33456 097.2031 002.2512 0008341 124.7513 351.9114 15.50439124270328
0 YAOGAN 5
1 33456U 08064A   13289.10168676  .00027776  00000-0  48767-3 0  3816
2 33456 097.2029 002.5679 0008158 123.8754 320.0840 15.50460859270372
0 YAOGAN 5
1 33456U 08064A   13289.43241262  .00028080  00000-0  49262-3 0  3826
2 33456 097.2031 002.8989 0008088 122.9831 005.7775 15.50481084270423
0 YAOGAN 5
1 33456U 08064A   13289.75281914  .00028947  00000-0  50734-3 0  3838
2 33456 097.2032 003.2195 0007886 120.2165 355.8203 15.50504319270471
0 YAOGAN 5
1 33456U 08064A   13290.06991895  .00030429  00000-0  53263-3 0  3849
2 33456 097.2040 003.5366 0007896 119.9684 324.9471 15.50531781270528
0 YAOGAN 5
1 33456U 08064A   13290.45178591  .00031279  00000-0  54681-3 0  3852
2 33456 097.2038 003.9192 0008213 119.2429 295.8521 15.50559544270585
0 YAOGAN 5
1 33456U 08064A   13290.78554772  .00031974  00000-0  55840-3 0  3868
2 33456 097.2036 004.2526 0008177 117.7398 359.2138 15.50583820270634
0 YAOGAN 5
1 33456U 08064A   13291.09554175  .00032432  00000-0  56590-3 0  3874
2 33456 097.2035 004.5626 0008227 117.4750 288.7755 15.50605826270689
0 YAOGAN 5
1 33456U 08064A   13291.43299013  .00032662  00000-0  56940-3 0  3884
2 33456 097.2035 004.9004 0008349 116.1997 012.5252 15.50628817270733
0 YAOGAN 5
1 33456U 08064A   13291.76000853  .00032997  00000-0  57475-3 0  3898
2 33456 097.2035 005.2277 0008299 114.2261 038.8136 15.50651597270784
0 YAOGAN 5
1 33456U 08064A   13292.06400257  .00032815  00000-0  57123-3 0  3905
2 33456 097.2035 005.5320 0008270 113.7183 295.2042 15.50670070270830
0 YAOGAN 5
1 33456U 08064A   13292.40130530  .00032584  00000-0  56683-3 0  3911
2 33456 097.2035 005.8697 0008295 112.6793 017.9693 15.50690501270889
0 YAOGAN 5
1 33456U 08064A   13292.78611847  .00031938  00000-0  55522-3 0  3921
2 33456 097.2039 006.2551 0008387 110.9988 006.4520 15.50712070270941
0 YAOGAN 5
1 33456U 08064A   13293.09563442  .00031522  00000-0  54769-3 0  3935
2 33456 097.2041 006.5650 0008465 110.9096 293.2962 15.50729315270995
0 YAOGAN 5
1 33456U 08064A   13293.44584491  .00031439  00000-0  54587-3 0  3947
2 33456 097.2041 006.9154 0008354 109.6022 088.4195 15.50750795271044
0 YAOGAN 5
1 33456U 08064A   13293.76042862  .00031285  00000-0  54285-3 0  3958
2 33456 097.2042 007.2301 0008298 108.6726 044.4249 15.50769529271092
0 YAOGAN 5
1 33456U 08064A   13294.07084632  .00030861  00000-0  53519-3 0  3963
2 33456 097.2039 007.5409 0008564 108.7217 336.2225 15.50786027271146
0 YAOGAN 5
1 33456U 08064A   13294.40165336  .00030726  00000-0  53250-3 0  3974
2 33456 097.2037 007.8723 0008530 107.5426 023.0322 15.50805608271199
0 YAOGAN 5
1 33456U 08064A   13294.78660762  .00030573  00000-0  52944-3 0  3988
2 33456 097.2035 008.2572 0008492 105.7769 012.5542 15.50828333271255
0 YAOGAN 5
1 33456U 08064A   13295.10305907  .00030347  00000-0  52522-3 0  3994
2 33456 097.2031 008.5735 0008512 104.7179 339.1952 15.50846186271307
0 YAOGAN 5
1 33456U 08064A   13295.42254385  .00030292  00000-0  52394-3 0  4001
2 33456 097.2029 008.8928 0008437 103.9668 322.4797 15.50865351271353
0 YAOGAN 5
1 33456U 08064A   13295.75396123  .00030114  00000-0  52053-3 0  4010
2 33456 097.2031 009.2247 0008414 103.3921 012.1835 15.50884288271408
0 YAOGAN 5
1 33456U 08064A   13296.07104138  .00029854  00000-0  51575-3 0  4027
2 33456 097.2028 009.5418 0008415 102.2407 342.4893 15.50901909271453
